CCSDS_OEM_VERS = 1.0
CREATION_DATE  = 2021-02-05T14:48:58
ORIGINATOR     = GMAT USER

META_START
OBJECT_NAME          = SC_mis1_sat1
OBJECT_ID            = sat1
CENTER_NAME          = Earth
REF_FRAME            = EME2000
TIME_SYSTEM          = UTC
START_TIME           = 2020-05-15T11:30:00.000
USEABLE_START_TIME   = 2020-05-15T11:30:00.000
USEABLE_STOP_TIME    = 2020-05-15T13:54:00.000
STOP_TIME            = 2020-05-15T13:54:00.000
INTERPOLATION        = Lagrange
INTERPOLATION_DEGREE = 7 
META_STOP

2020-05-15T11:30:00.000   7.100000000000000e+03   0.000000000000000e+00   1.300000000000000e+03   0.000000000000000e+00   7.350000000000000e+00   1.000000000000000e+00
2020-05-15T11:31:00.000   7.086464275097623e+03   4.407199963631788e+02   1.357477065229656e+03  -4.507114044918405e-01   7.336010909823919e+00   9.153554315412880e-01
2020-05-15T11:33:08.696   6.966921403492820e+03   1.378256723231155e+03   1.463086249444675e+03  -1.402880937290907e+00   7.212874431148960e+00   7.237793728019094e-01
2020-05-15T11:35:24.703   6.709612596781925e+03   2.342837000247938e+03   1.547078479313788e+03  -2.373294149346262e+00   6.948966071520402e+00   5.096731507650956e-01
2020-05-15T11:37:41.485   6.321240218454258e+03   3.267649407185198e+03   1.601591048382396e+03  -3.294966240523665e+00   6.552254094310952e+00   2.864294105135648e-01
2020-05-15T11:39:58.609   5.810020272354020e+03   4.131789078808755e+03   1.625286505108457e+03  -4.148275902792403e+00   6.031892192213235e+00   5.890717802065985e-02
2020-05-15T11:42:16.065   5.185849776145348e+03   4.918574914374285e+03   1.617712195513314e+03  -4.918142438639200e+00   5.398344381020223e+00  -1.686902138204459e-01
2020-05-15T11:44:33.872   4.460511074463629e+03   5.612944883554950e+03   1.578983350055551e+03  -5.591248179529055e+00   4.663569974192407e+00  -3.922801570282607e-01
2020-05-15T11:46:51.998   3.647906473565258e+03   6.201217049167967e+03   1.509793603977607e+03  -6.155677250880934e+00   3.841265087260192e+00  -6.078017237539866e-01
2020-05-15T11:49:10.430   2.763478456059698e+03   6.671751893171329e+03   1.411398562901532e+03  -6.601439084984141e+00   2.946311353185779e+00  -8.113869612591798e-01
2020-05-15T11:51:29.027   1.824945498467263e+03   7.014751938268338e+03   1.285723553453093e+03  -6.920177387520453e+00   1.995589464665080e+00  -9.991969696762154e-01
2020-05-15T11:53:47.738   8.505814813132286e+02   7.223288597170982e+03   1.135187221255979e+03  -7.106058908644530e+00   1.006336372556946e+00  -1.167808746196582e+00
2020-05-15T11:56:06.452  -1.401426329610235e+02   7.293000789625295e+03   9.627781778146026e+02  -7.155429669192333e+00  -3.084558618970834e-03  -1.314047508078307e+00
2020-05-15T11:58:25.066  -1.127450860438075e+03   7.222433722515724e+03   7.719370640058086e+02  -7.067105482543361e+00  -1.013953435993131e+00  -1.435144955122799e+00
2020-05-15T12:00:43.466  -2.091550223334774e+03   7.013071717682257e+03   5.665078684198807e+02  -6.842410685362127e+00  -2.007349137661943e+00  -1.528767737329181e+00
2020-05-15T12:03:01.554  -3.013245524805934e+03   6.669292568870412e+03   3.506185584960954e+02  -6.485170334278999e+00  -2.964648488797067e+00  -1.593084099978723e+00
2020-05-15T12:05:19.207  -3.874097997218036e+03   6.198367611057388e+03   1.286516107764440e+02  -6.001790269278757e+00  -3.867574305216292e+00  -1.626785416945206e+00
2020-05-15T12:07:36.302  -4.657056297769160e+03   5.610293456795614e+03  -9.489508207468937e+01  -5.401190721338181e+00  -4.698759254045994e+00  -1.629150855811814e+00
2020-05-15T12:09:52.741  -5.346958840615879e+03   4.917442660732541e+03  -3.155482843952104e+02  -4.694580820438410e+00  -5.442223261824445e+00  -1.600070980389930e+00
2020-05-15T12:12:08.421  -5.930721624066611e+03   4.134343663779107e+03  -5.289242183341341e+02  -3.895374909979268e+00  -6.083562785309516e+00  -1.540058262202413e+00
2020-05-15T12:14:23.281  -6.397779754116544e+03   3.277075609725266e+03  -7.308921740665409e+02  -3.018712413169138e+00  -6.610461608319168e+00  -1.450228217314063e+00
2020-05-15T12:16:37.261  -6.740082232588759e+03   2.363050311009767e+03  -9.176035595018026e+02  -2.081357218884440e+00  -7.012761076807094e+00  -1.332290471432202e+00
2020-05-15T12:18:50.323  -6.952271607758015e+03   1.410473112422453e+03  -1.085598394000798e+03  -1.101243845608859e+00  -7.282768735529744e+00  -1.188507080473656e+00
2020-05-15T12:21:02.671  -7.031699193748862e+03   4.363053901946905e+02  -1.232084344562955e+03  -9.543872953501953e-02  -7.415496954441110e+00  -1.021349430059181e+00
2020-05-15T12:23:14.175  -6.977778083703925e+03  -5.399076195435481e+02  -1.354299848360372e+03   9.158830144354755e-01  -7.407917622982381e+00  -8.341289717797777e-01
2020-05-15T12:25:24.857  -6.792721878397851e+03  -1.499861445723395e+03  -1.450168107597185e+03   1.913377335745116e+00  -7.260063313159933e+00  -6.304210526356613e-01
2020-05-15T12:27:34.784  -6.481051910049996e+03  -2.426075204115707e+03  -1.518150171528697e+03   2.878149789302766e+00  -6.974616812990537e+00  -4.140789804957289e-01
2020-05-15T12:29:44.071  -6.049261743257040e+03  -3.302199365382593e+03  -1.557224995024603e+03   3.792149365332690e+00  -6.556679438208373e+00  -1.891296132953563e-01
2020-05-15T12:31:52.756  -5.506087407472784e+03  -4.112346714049787e+03  -1.566848756858416e+03   4.637565443412327e+00  -6.014114497850414e+00   4.006955388673310e-02
2020-05-15T12:34:00.714  -4.863133716095575e+03  -4.841122541912845e+03  -1.547074381767860e+03   5.396976318086407e+00  -5.358290149630219e+00   2.687576919398354e-01
2020-05-15T12:36:08.568  -4.129687527446578e+03  -5.478689177334106e+03  -1.498281734246344e+03   6.058747030953273e+00  -4.598769247390548e+00   4.934844784312749e-01
2020-05-15T12:38:16.510  -3.318029243274925e+03  -6.013555281788219e+03  -1.421179799338927e+03   6.609613583319007e+00  -3.748654630611142e+00   7.100205992460565e-01
2020-05-15T12:40:24.720  -2.441772591453856e+03  -6.435523192251680e+03  -1.316899828827563e+03   7.037875090745645e+00  -2.822930667015685e+00   9.141707516795842e-01
2020-05-15T12:42:33.367  -1.515868280372079e+03  -6.735848753175219e+03  -1.187017562822041e+03   7.333671218715255e+00  -1.838418401020104e+00   1.101831257849765e+00
2020-05-15T12:44:42.611  -5.564268758205784e+02  -6.907494787049945e+03  -1.033554786304702e+03   7.489340542326339e+00  -8.135101051910574e-01   1.269092438924293e+00
2020-05-15T12:46:52.562   4.190875441598857e+02  -6.945337898702860e+03  -8.590427962876139e+02   7.499717443871595e+00   2.317276117331977e-01   1.412279848474294e+00
2020-05-15T12:49:03.321   1.392375905983407e+03  -6.846548562608177e+03  -6.664780882253060e+02   7.362562975186537e+00   1.276234062178353e+00   1.528126133276664e+00
2020-05-15T12:51:14.925   2.344226585452267e+03  -6.610911300064299e+03  -4.593796048275636e+02   7.078909874394969e+00   2.298014086495825e+00   1.613843177902714e+00
2020-05-15T12:53:27.360   3.255043023132317e+03  -6.241207526186790e+03  -2.417429043221730e+02   6.653409577629174e+00   3.274851162733865e+00   1.667282938746268e+00
2020-05-15T12:55:40.581   4.105565517381182e+03  -5.743379876522931e+03  -1.792893593799910e+01   6.094388836008612e+00   4.185219264724567e+00   1.687071467071722e+00
2020-05-15T12:57:54.489   4.877331680166737e+03  -5.126679559222096e+03   2.074014595790979e+02   5.413852449016928e+00   5.008885108793984e+00   1.672691038846504e+00
2020-05-15T13:00:08.966   5.553527365334588e+03  -4.403464309898069e+03   4.294721894742643e+02   4.627069042665044e+00   5.727882280041979e+00   1.624535392720445e+00
2020-05-15T13:02:23.903   6.119696675952470e+03  -3.588682498229397e+03   6.435929343894858e+02   3.751820767634013e+00   6.327273911094000e+00   1.543874135220128e+00
2020-05-15T13:04:39.199   6.564074094591881e+03  -2.699411604308069e+03   8.452831824844332e+02   2.807738930488791e+00   6.795452693451896e+00   1.432770318678402e+00
2020-05-15T13:06:54.774   6.877876165349973e+03  -1.754208617176629e+03   1.030414069132672e+03   1.815477083822100e+00   7.124347636265697e+00   1.293955256922048e+00
2020-05-15T13:09:10.582   7.055373792980782e+03  -7.724579718107302e+02   1.195309988584967e+03   7.959383010380372e-01   7.309362943922027e+00   1.130677063381149e+00
2020-05-15T13:11:26.605   7.093787640580989e+03   2.261342873841411e+02   1.336797765317340e+03  -2.302865541995516e-01   7.349114167334792e+00   9.465607386406296e-01
2020-05-15T13:13:42.852   6.993120367627927e+03   1.221956938164276e+03   1.452232016992733e+03  -1.243337189302612e+00   7.245098671211728e+00   7.454858815096741e-01
2020-05-15T13:15:59.337   6.755992350682283e+03   2.195726418636757e+03   1.539496348500898e+03  -2.224273111060266e+00   7.001382322088192e+00   5.315089462868321e-01
2020-05-15T13:18:16.089   6.387468509612980e+03   3.128860767193292e+03   1.597021808422047e+03  -3.155373122033687e+00   6.624298175681669e+00   3.087668297270041e-01
2020-05-15T13:20:33.143   5.894877344788947e+03   4.003697001331501e+03   1.623782766231067e+03  -4.020248641138748e+00   6.122164578570561e+00   8.141753395491430e-02
2020-05-15T13:22:50.518   5.287742716987540e+03   4.803580004049024e+03   1.619296264886798e+03  -4.803815275657748e+00   5.505148719487485e+00  -1.463733186220560e-01
2020-05-15T13:25:08.237   4.577558381882189e+03   5.513245415860370e+03   1.583631857169964e+03  -5.492545619477906e+00   4.785002053349268e+00  -3.705150901218135e-01
2020-05-15T13:27:26.284   3.777861889479029e+03   6.118829109422218e+03   1.517426442914028e+03  -6.074353329750382e+00   3.975132819147049e+00  -5.869611934642120e-01
2020-05-15T13:29:44.634   2.903921573289538e+03   6.608335412574249e+03   1.421889349874809e+03  -6.538928777955716e+00   3.090318917693910e+00  -7.918099357603064e-01
2020-05-15T13:32:03.204   1.972851819133836e+03   6.971758736471185e+03   1.298839835621880e+03  -6.877750531000164e+00   2.146887723315438e+00  -9.812826298566719e-01
2020-05-15T13:34:21.883   1.003157497145209e+03   7.201586964917095e+03   1.150690490842116e+03  -7.084480028564617e+00   1.162349097680062e+00  -1.151846052140235e+00
2020-05-15T13:36:40.581   1.406462027416535e+01   7.293093581612715e+03   9.803627047987567e+02  -7.155170159991127e+00   1.548352577917748e-01  -1.300326435194947e+00
2020-05-15T13:38:59.196  -9.747010353655834e+02   7.244381385687241e+03   7.912514138839192e+02  -7.088272829535244e+00  -8.569918370191718e-01  -1.423923426582364e+00
2020-05-15T13:41:17.631  -1.943440345693101e+03   7.056453785978580e+03   5.871372144060081e+02  -6.884704565362082e+00  -1.854339548770808e+00  -1.520275965603479e+00
2020-05-15T13:43:35.769  -2.872735577835952e+03   6.733249071698257e+03   3.721436339561282e+02  -6.547917948324883e+00  -2.818411697654934e+00  -1.587492704824465e+00
2020-05-15T13:45:53.504  -3.744088009215146e+03   6.281553734132785e+03   1.506074323259837e+02  -6.083881096233823e+00  -3.730946597673274e+00  -1.624220651054517e+00
2020-05-15T13:48:10.721  -4.540244521389913e+03   5.710885633184225e+03  -7.299774314267816e+01  -5.501062258584529e+00  -4.574463603684985e+00  -1.629675597956357e+00
2020-05-15T13:50:27.311  -5.245657630204082e+03   5.033262074683491e+03  -2.941778151169895e+02  -4.810318748594058e+00  -5.332684377463584e+00  -1.603678344867711e+00
2020-05-15T13:52:43.184  -5.846915876178557e+03   4.262808363631345e+03  -5.085506764864284e+02  -4.024636518758419e+00  -5.990971524001219e+00  -1.546665599059369e+00
2020-05-15T13:54:00.000  -6.137693761588158e+03   3.789911641206996e+03  -6.256621823853225e+02  -3.541766221337183e+00  -6.315393494700723e+00  -1.500851984389661e+00
